STARLINK-2505_new
1 18411C 21038BL  21326.03734766  .00004334  00000-0  29036-3 0  3263
2 18411  53.0536 133.5587 0001357 101.4317 151.0371 15.06395335    16
STARLINK-2505_old
1 28411C 21038BL  21325.13423260  .00000711  00000-0  47649-4 0  3252
2 28411  53.0535 137.6128 0001388 101.5863 290.5527 15.06395900    12
